[{"OBJECT_NAME":"OBJECT H","OBJECT_ID":"2025-055H","EPOCH":"2026-03-09T23:29:50.051328","MEAN_MOTION":15.30330066,"ECCENTRICITY":0.00075967,"INCLINATION":97.636,"RA_OF_ASC_NODE":211.9572,"ARG_OF_PERICENTER":140.4354,"MEAN_ANOMALY":219.7441,"EPHEMERIS_TYPE":0,"CLASSIFICATION_TYPE":"U","NORAD_CAT_ID":63298,"ELEMENT_SET_NO":999,"REV_AT_EPOCH":5423,"BSTAR":0.0015582864,"MEAN_MOTION_DOT":0.00045901,"MEAN_MOTION_DDOT":0},{"OBJECT_NAME":"STARLINK-33704","OBJECT_ID":"2025-083S","EPOCH":"2026-03-09T04:58:58.430208","MEAN_MOTION":15.27585573,"ECCENTRICITY":0.00018039,"INCLINATION":43.0052,"RA_OF_ASC_NODE":7.887,"ARG_OF_PERICENTER":263.5684,"MEAN_ANOMALY":96.4962,"EPHEMERIS_TYPE":0,"CLASSIFICATION_TYPE":"U","NORAD_CAT_ID":63650,"ELEMENT_SET_NO":999,"REV_AT_EPOCH":4999,"BSTAR":0.00098865857,"MEAN_MOTION_DOT":0.00027048,"MEAN_MOTION_DDOT":0}]
